FENGYUN 3D              
1 43010U 17072A   26177.23860174  .00000093  00000+0  65804-4 0  9997
2 43010  99.0126 151.8243 0002363  48.2298 311.9079 14.19741503446276
NOAA 20 (JPSS-1)        
1 43013U 17073A   26177.23504510  .00000042  00000+0  40842-4 0  9999
2 43013  98.7772 116.6172 0000603 132.6521 227.4706 14.19513305445751
GOES 17                 
1 43226U 18022A   26177.19157198 -.00000172  00000+0  00000+0 0  9993
2 43226   0.9597  85.5608 0000680  23.4402 144.7721  1.00272828 30515
SENTINEL-3B             
1 43437U 18039A   26177.16633787  .00000100  00000+0  59426-4 0  9996
2 43437  98.6245 244.5698 0000745 106.5994 253.5269 14.26737139425405
FENGYUN 2H              
1 43491U 18050A   26177.11108912 -.00000121  00000+0  00000+0 0  9994
2 43491   3.0548  78.9761 0001677 124.2863 190.3122  1.00269792 29520
METOP-C                 
1 43689U 18087A   26177.21840237  .00000084  00000+0  58143-4 0  9990
2 43689  98.6640 236.6568 0002034 117.9684 242.1700 14.21514341396118
GEO-KOMPSAT-2A          
1 43823U 18100A   26176.83556382 -.00000333  00000+0  00000+0 0  9990
2 43823   0.0442 157.6311 0002457 293.4522 251.9424  1.00270592 27711
METEOR-M2 2             
1 44387U 19038A   26177.23617363  .00000213  00000+0  11200-3 0  9993
2 44387  98.9146 164.6551 0001705  35.4384 324.6907 14.24368474362581
ARKTIKA-M 1             
1 47719U 21016A   26175.46896265 -.00000298  00000+0  00000+0 0  9993
2 47719  63.2470  56.5720 7291000 269.9787  14.5750  2.00620016 38936
FENGYUN 3E              
1 49008U 21062A   26177.29192940 -.00000037  00000+0  31616-5 0  9993
2 49008  98.7495 180.5984 0002793  71.4834 288.6646 14.19904340257872
GOES 18                 
1 51850U 22021A   26177.21859053  .00000108  00000+0  00000+0 0  9999
2 51850   0.0070  70.8869 0000633  53.6380  91.5066  1.00273030  6686
NOAA 21 (JPSS-2)        
1 54234U 22150A   26177.26764862  .00000022  00000+0  30909-4 0  9990
2 54234  98.7060 115.9043 0002195 139.6779 220.4561 14.19538051187836
METEOSAT-12 (MTG-I1)    
1 54743U 22170C   26177.23782788  .00000003  00000+0  00000+0 0  9994
2 54743   0.7484  24.4270 0003630  71.6398 263.5794  1.00275283 13067
TIANMU-1 03             
1 55973U 23039A   26177.29753169  .00016445  00000+0  32136-3 0  9998
2 55973  97.5230 351.6251 0003987  77.7961 282.3735 15.47531541182247
TIANMU-1 04             
1 55974U 23039B   26177.28347284  .00017376  00000+0  33234-3 0  9999
2 55974  97.5168 350.7646 0004428  70.7363 289.4366 15.48138759182250
TIANMU-1 05             
1 55975U 23039C   26177.27874184  .00016621  00000+0  32561-3 0  9997
2 55975  97.5212 351.2171 0003964  92.4566 267.7137 15.47455403182229
TIANMU-1 06             
1 55976U 23039D   26177.28742172  .00017116  00000+0  32854-3 0  9995
2 55976  97.5221 351.8708 0004150  87.4838 272.6887 15.48040227182251
FENGYUN 3G              
1 56232U 23055A   26177.24423372  .00024214  00000+0  38617-3 0  9993
2 56232  49.9932 299.3416 0007222 334.3225  25.7383 15.53016144181418
METEOR-M2 3             
1 57166U 23091A   26177.30283056 -.00000002  00000+0  17911-4 0  9995
2 57166  98.6079 232.0946 0004795 133.0037 227.1544 14.24047444155813
TIANMU-1 07             
1 57399U 23101A   26177.32267453  .00006677  00000+0  23308-3 0  9999
2 57399  97.2594 227.7811 0004337 102.8455 257.3271 15.29907745163041
TIANMU-1 08             
1 57400U 23101B   26177.28929144  .00007302  00000+0  25455-3 0  9990
2 57400  97.2582 227.5177 0005700  93.4281 266.7612 15.29912023163038
TIANMU-1 09             
1 57401U 23101C   26177.27251520  .00007270  00000+0  25322-3 0  9993
2 57401  97.2540 226.9125 0004886 106.4240 253.7539 15.29945906163033
TIANMU-1 10             
1 57402U 23101D   26177.30573126  .00006939  00000+0  24196-3 0  9996
2 57402  97.2620 228.0047 0006442 102.9841 257.2120 15.29917920163037
FENGYUN 3F              
1 57490U 23111A   26177.27563204  .00000028  00000+0  33656-4 0  9991
2 57490  98.6834 247.1150 0001553  86.7222 273.4133 14.19940444150151
ARKTIKA-M 2             
1 58584U 23198A   26174.74078844  .00000167  00000+0  00000+0 0  9997
2 58584  63.2421 153.6337 6904949 267.3888  18.7567  2.00611379 18452
TIANMU-1 11             
1 58645U 23205A   26177.29302135  .00005908  00000+0  22496-3 0  9995
2 58645  97.3445 198.7069 0007837 344.3841  15.7155 15.27083050138911
TIANMU-1 12             
1 58646U 23205B   26177.32912193  .00006381  00000+0  24306-3 0  9999
2 58646  97.3434 198.4963 0005666 328.0577  32.0318 15.27051455138909
TIANMU-1 13             
1 58647U 23205C   26177.29664878  .00006097  00000+0  23344-3 0  9995
2 58647  97.3462 198.7383 0005071 301.3000  58.7742 15.26903212138895
TIANMU-1 14             
1 58648U 23205D   26177.28158885  .00006258  00000+0  23919-3 0  9998
2 58648  97.3399 197.8981 0005972 307.2995  52.7699 15.26947594138893
TIANMU-1 19             
1 58660U 23208A   26177.30276552  .00008736  00000+0  28785-3 0  9999
2 58660  97.4508 293.6497 0003444 284.1658  75.9200 15.31703334138723
