OBJECT_NAME,OBJECT_ID,EPOCH,MEAN_MOTION,ECCENTRICITY,INCLINATION,RA_OF_ASC_NODE,ARG_OF_PERICENTER,MEAN_ANOMALY,EPHEMERIS_TYPE,CLASSIFICATION_TYPE,NORAD_CAT_ID,ELEMENT_SET_NO,REV_AT_EPOCH,BSTAR,MEAN_MOTION_DOT,MEAN_MOTION_DDOT
FENGYUN 3D,2017-072A,2026-06-26T05:43:35.190336,14.19741503,.00023636,99.0126,151.8243,48.2298,311.9079,0,U,43010,999,44627,.65803665E-4,.93E-6,0
NOAA 20 (JPSS-1),2017-073A,2026-06-26T05:38:27.896640,14.19513305,.00006038,98.7772,116.6172,132.6521,227.4706,0,U,43013,999,44575,.40842194E-4,.42E-6,0
GOES 17,2018-022A,2026-06-26T04:35:51.819072,1.00272828,.00006803,0.9597,85.5608,23.4402,144.7721,0,U,43226,999,3051,0,-.172E-5,0
SENTINEL-3B,2018-039A,2026-06-26T03:59:31.591968,14.26737139,.00007457,98.6245,244.5698,106.5994,253.5269,0,U,43437,999,42540,.59425605E-4,.1E-5,0
FENGYUN 2H,2018-050A,2026-06-26T02:39:58.099968,1.00269792,.00016774,3.0548,78.9761,124.2863,190.3122,0,U,43491,999,2952,0,-.121E-5,0
METOP-C,2018-087A,2026-06-26T05:14:29.964768,14.21514341,.00020346,98.6640,236.6568,117.9684,242.1700,0,U,43689,999,39611,.58143473E-4,.84E-6,0
GEO-KOMPSAT-2A,2018-100A,2026-06-25T20:03:12.714048,1.00270592,.00024572,0.0442,157.6311,293.4522,251.9424,0,U,43823,999,2771,0,-.333E-5,0
METEOR-M2 2,2019-038A,2026-06-26T05:40:05.401632,14.24368474,.00017055,98.9146,164.6551,35.4384,324.6907,0,U,44387,999,36258,.11200192E-3,.213E-5,0
ARKTIKA-M 1,2021-016A,2026-06-24T11:15:18.372960,2.00620016,.7291,63.2470,56.5720,269.9787,14.5750,0,U,47719,999,3893,0,-.298E-5,0
FENGYUN 3E,2021-062A,2026-06-26T07:00:22.700160,14.19904340,.00027935,98.7495,180.5984,71.4834,288.6646,0,U,49008,999,25787,.3161569E-5,-.37E-6,0
GOES 18,2022-021A,2026-06-26T05:14:46.221792,1.00273030,.00006333,0.0070,70.8869,53.6380,91.5066,0,U,51850,999,668,0,.108E-5,0
NOAA 21 (JPSS-2),2022-150A,2026-06-26T06:25:24.840768,14.19538051,.00021957,98.7060,115.9043,139.6779,220.4561,0,U,54234,999,18783,.30909221E-4,.22E-6,0
METEOSAT-12 (MTG-I1),2022-170C,2026-06-26T05:42:28.328832,1.00275283,.00036309,0.7484,24.4270,71.6398,263.5794,0,U,54743,999,1306,0,.3E-7,0
TIANMU-1 03,2023-039A,2026-06-26T07:08:26.738016,15.47531541,.00039871,97.5230,351.6251,77.7961,282.3735,0,U,55973,999,18224,.32136221E-3,.16445E-3,0
TIANMU-1 04,2023-039B,2026-06-26T06:48:12.053376,15.48138759,.00044283,97.5168,350.7646,70.7363,289.4366,0,U,55974,999,18225,.33233807E-3,.17376E-3,0
TIANMU-1 05,2023-039C,2026-06-26T06:41:23.294976,15.47455403,.00039649,97.5212,351.2171,92.4566,267.7137,0,U,55975,999,18222,.32561239E-3,.16621E-3,0
TIANMU-1 06,2023-039D,2026-06-26T06:53:53.236608,15.48040227,.00041503,97.5221,351.8708,87.4838,272.6887,0,U,55976,999,18225,.32853622E-3,.17116E-3,0
FENGYUN 3G,2023-055A,2026-06-26T05:51:41.793408,15.53016144,.00072225,49.9932,299.3416,334.3225,25.7383,0,U,56232,999,18141,.38617087E-3,.24214E-3,0
METEOR-M2 3,2023-091A,2026-06-26T07:16:04.560384,14.24047444,.00047953,98.6079,232.0946,133.0037,227.1544,0,U,57166,999,15581,.17910965E-4,-.2E-7,0
TIANMU-1 07,2023-101A,2026-06-26T07:44:39.079392,15.29907745,.00043373,97.2594,227.7811,102.8455,257.3271,0,U,57399,999,16304,.23308223E-3,.6677E-4,0
TIANMU-1 08,2023-101B,2026-06-26T06:56:34.780416,15.29912023,.00057,97.2582,227.5177,93.4281,266.7612,0,U,57400,999,16303,.25455473E-3,.7302E-4,0
TIANMU-1 09,2023-101C,2026-06-26T06:32:25.313280,15.29945906,.00048868,97.2540,226.9125,106.4240,253.7539,0,U,57401,999,16303,.25321721E-3,.727E-4,0
TIANMU-1 10,2023-101D,2026-06-26T07:20:15.180864,15.29917920,.0006442,97.2620,228.0047,102.9841,257.2120,0,U,57402,999,16303,.24196082E-3,.6939E-4,0
FENGYUN 3F,2023-111A,2026-06-26T06:36:54.608256,14.19940444,.00015534,98.6834,247.1150,86.7222,273.4133,0,U,57490,999,15015,.33655987E-4,.28E-6,0
ARKTIKA-M 2,2023-198A,2026-06-23T17:46:44.121216,2.00611379,.69049491,63.2421,153.6337,267.3888,18.7567,0,U,58584,999,1845,0,.167E-5,0
TIANMU-1 11,2023-205A,2026-06-26T07:01:57.044640,15.27083050,.0007837,97.3445,198.7069,344.3841,15.7155,0,U,58645,999,13891,.22496232E-3,.5908E-4,0
TIANMU-1 12,2023-205B,2026-06-26T07:53:56.134752,15.27051455,.0005666,97.3434,198.4963,328.0577,32.0318,0,U,58646,999,13890,.24305991E-3,.6381E-4,0
TIANMU-1 13,2023-205C,2026-06-26T07:07:10.454592,15.26903212,.00050719,97.3462,198.7383,301.3000,58.7742,0,U,58647,999,13889,.23343756E-3,.6097E-4,0
TIANMU-1 14,2023-205D,2026-06-26T06:45:29.276640,15.26947594,.0005972,97.3399,197.8981,307.2995,52.7699,0,U,58648,999,13889,.23918846E-3,.6258E-4,0
TIANMU-1 19,2023-208A,2026-06-26T07:15:58.940928,15.31703334,.00034446,97.4508,293.6497,284.1658,75.9200,0,U,58660,999,13872,.28785287E-3,.8736E-4,0
